location_id,street_address,city,state,zip_code,country,region,created_at,updated_at
1,433 Jill Springs,New Roberttown,FL,12781,USA,SOUTH,2022-06-06 15:09:20,2022-06-06 15:09:20
2,386 Shane Harbors,Port Lindachester,CA,45098,USA,WEST,2021-08-03 06:05:16,2021-08-03 06:05:16
3,1161 Abbott Rapids,Lindsaymouth,NC,70785,USA,SOUTH,2021-09-15 12:32:20,2021-09-15 12:32:20
4,84959 Janet Cape Apt. 413,South Joshuastad,GA,21820,USA,SOUTH,2021-05-26 17:25:27,2021-05-26 17:25:27
5,419 Amanda Gardens,South Noah,GA,84387,USA,SOUTH,2021-11-21 22:52:01,2021-11-21 22:52:01
6,503 Linda Locks,Carlshire,IL,94599,USA,CENTRAL,2022-07-12 05:33:25,2022-07-12 05:33:25
7,7242 Julie Plain Suite 969,Coxberg,FL,67285,USA,SOUTH,2021-10-12 09:48:48,2021-10-12 09:48:48
8,22691 James Mountain,Tashatown,WI,89667,USA,CENTRAL,2022-02-20 01:06:52,2022-02-20 01:06:52
9,514 Moore Alley Suite 828,Port Colleenhaven,NY,80319,USA,EAST,2022-08-05 00:22:51,2022-08-05 00:22:51
10,88095 Smith Lake Suite 303,North Jessicaland,CO,70323,USA,WEST,2021-07-19 20:14:45,2021-07-19 20:14:45
11,782 Rose Rest,Brandtside,TN,99495,USA,SOUTH,2022-09-06 23:16:24,2022-09-06 23:16:24
12,465 Lam Mission,East Jeffreymouth,TX,03258,USA,SOUTH,2022-08-11 17:49:59,2022-08-11 17:49:59
13,301 Jeremy Bypass,Chadbury,CA,37001,USA,WEST,2022-04-30 06:58:40,2022-04-30 06:58:40
14,299 Sanchez Mountains,Leeville,NY,86875,USA,EAST,2022-06-28 05:13:45,2022-06-28 05:13:45
15,7010 Chandler Union Apt. 333,Taylorburgh,OH,37010,USA,CENTRAL,2022-01-05 10:00:51,2022-01-05 10:00:51
16,8108 Tanya Terrace,East Richard,GA,63593,USA,SOUTH,2022-01-28 11:36:18,2022-01-28 11:36:18
17,26064 Mitchell Square Suite 234,North Beth,MD,71567,USA,EAST,2021-07-30 16:20:49,2021-07-30 16:20:49
18,09788 Brian Pass Apt. 219,Lake Michellefurt,MN,16214,USA,CENTRAL,2021-04-10 01:42:38,2021-04-10 01:42:38
19,909 Robert Prairie,Sarahborough,CA,88283,USA,WEST,2023-01-13 08:38:35,2023-01-13 08:38:35
20,6247 Hickman Cliffs,South Christineshire,WI,13605,USA,CENTRAL,2022-08-01 16:57:46,2022-08-01 16:57:46
21,425 Natasha Land,Ericside,OH,92715,USA,CENTRAL,2021-04-19 01:24:13,2021-04-19 01:24:13
22,841 Joseph Coves,West Juan,WI,28108,USA,CENTRAL,2021-10-03 12:37:02,2021-10-03 12:37:02
23,487 Whitehead Vista,North Cynthiaview,TN,06279,USA,SOUTH,2022-08-02 17:51:51,2022-08-02 17:51:51
24,427 Hoffman Creek,Lake Rebeccaside,GA,05223,USA,SOUTH,2021-02-27 03:11:35,2021-02-27 03:11:35
25,2045 Rachel Fords,Lake Curtis,IN,73886,USA,CENTRAL,2022-10-27 04:45:04,2022-10-27 04:45:04
26,232 Nicole Burg Apt. 563,Erikville,CO,50641,USA,WEST,2022-12-02 09:15:25,2022-12-02 09:15:25
27,37543 Andrew Fields Suite 541,Michaelhaven,NC,52887,USA,SOUTH,2022-11-23 15:26:28,2022-11-23 15:26:28
28,14294 Daniel Mews Suite 569,South Rachelborough,CA,33887,USA,WEST,2022-07-05 22:01:02,2022-07-05 22:01:02
29,88356 Stacy Isle Suite 148,Elizabethmouth,PA,53244,USA,EAST,2021-03-28 23:11:43,2021-03-28 23:11:43
30,66299 Sullivan Village,West Justinchester,TN,76520,USA,SOUTH,2022-07-18 20:09:18,2022-07-18 20:09:18
31,7738 Leon Underpass Apt. 148,Clarencebury,WA,88685,USA,WEST,2022-05-13 16:43:53,2022-05-13 16:43:53
32,00379 Stanley Roads,Lake Heather,NC,65300,USA,SOUTH,2021-10-09 07:09:25,2021-10-09 07:09:25
33,016 Gregory Square,Williamsbury,IL,16407,USA,CENTRAL,2021-12-13 11:33:14,2021-12-13 11:33:14
34,889 Dodson Mills Suite 872,Colebury,OH,84080,USA,CENTRAL,2022-01-23 23:30:05,2022-01-23 23:30:05
35,347 Jennifer Freeway Suite 558,East Edwardfurt,WA,91458,USA,WEST,2021-09-15 02:43:17,2021-09-15 02:43:17
36,66587 Brown Village,Priceshire,FL,91664,USA,SOUTH,2021-06-16 03:56:25,2021-06-16 03:56:25
37,0546 Medina Street Apt. 734,Tuckerfurt,NY,44558,USA,EAST,2021-03-10 19:27:24,2021-03-10 19:27:24
38,272 Rebecca Ramp Apt. 162,Whiteview,MA,50190,USA,EAST,2022-06-28 03:24:11,2022-06-28 03:24:11
39,5646 Conley Mountains Apt. 805,Lake Casey,FL,85927,USA,SOUTH,2021-10-21 16:01:18,2021-10-21 16:01:18
40,30923 Thomas Crescent,South Holly,AZ,48852,USA,WEST,2021-03-25 22:49:05,2021-03-25 22:49:05
41,41904 Sanders Stravenue,North Brittany,AZ,82714,USA,WEST,2021-06-27 02:37:50,2021-06-27 02:37:50
42,919 Michael Meadow Suite 185,Port Robertfort,MN,14334,USA,CENTRAL,2021-08-20 22:33:02,2021-08-20 22:33:02
43,726 Jessica Run Suite 987,Grahamshire,NC,35680,USA,SOUTH,2022-01-07 05:21:22,2022-01-07 05:21:22
44,47379 Rogers Park,Hunterborough,TX,47008,USA,SOUTH,2021-10-17 23:31:16,2021-10-17 23:31:16
45,9480 Christopher Stravenue Suite 783,Brewerfort,IN,59244,USA,CENTRAL,2022-09-30 08:14:45,2022-09-30 08:14:45
46,3634 Kennedy Pines,Ronaldside,WI,43858,USA,CENTRAL,2022-09-26 18:21:01,2022-09-26 18:21:01
47,4431 Leslie Summit Apt. 337,Jennyhaven,FL,78723,USA,SOUTH,2021-11-08 12:48:18,2021-11-08 12:48:18
48,43524 Jean Crossroad,Brandonton,MA,73030,USA,EAST,2021-09-19 06:25:45,2021-09-19 06:25:45
49,710 Harrison Mill,Jackton,NY,33593,USA,EAST,2021-09-25 22:37:52,2021-09-25 22:37:52
50,16719 Edward Valleys Suite 131,Obrienbury,WI,68995,USA,CENTRAL,2023-01-12 23:18:25,2023-01-12 23:18:25
